STARLINK-31503          
1 59200U 24045Y   26016.71454241  .00000381  00000+0  23372-4 0  9996
2 59200  43.0006  25.9682 0000772 267.4470  92.6293 15.27576042105218
STARLINK-31603          
1 59201U 24046A   26016.35970479  .00000093  00000+0  15256-4 0  9996
2 59201  53.1609  38.6911 0001246  92.0188 268.0956 15.30189745105030
STARLINK-31602          
1 59202U 24046B   26016.32276802  .00000173  00000+0  17959-4 0  9994
2 59202  53.1594  38.4557 0001257  85.8002 274.3142 15.30189096105031
STARLINK-31577          
1 59203U 24046C   26017.00002315  .00053101  00000+0  17934-2 0  9997
2 59203  53.1584  35.0607 0001367 100.2860 160.6758 15.30178792  5733
STARLINK-31522          
1 59204U 24046D   26016.35759294  .00000368  00000+0  24564-4 0  9996
2 59204  53.1599  38.6764 0001033  84.0335 276.0783 15.30193123105038
STARLINK-31586          
1 59205U 24046E   26016.46288853  .00001766  00000+0  71724-4 0  9990
2 59205  53.1610  37.9087 0001276  93.1381 266.9766 15.30200433105058
STARLINK-31247          
1 59206U 24046F   26016.34599803 -.00000519  00000+0 -54037-5 0  9994
2 59206  53.1590  38.6011 0001158  84.5214 275.5919 15.30181774105039
STARLINK-31591          
1 59207U 24046G   26016.45550477  .00001637  00000+0  67382-4 0  9997
2 59207  53.1613  37.8657 0001335  87.7522 272.3631 15.30197820105054
STARLINK-31576          
1 59208U 24046H   26016.31643542 -.00000270  00000+0  30246-5 0  9992
2 59208  53.1604  38.4166 0001153  91.3729 268.7404 15.30187283105032
STARLINK-31601          
1 59209U 24046J   26016.37119866  .00001027  00000+0  46797-4 0  9993
2 59209  53.1609  38.0458 0001394  91.1413 268.9747 15.30192158105043
STARLINK-31520          
1 59210U 24046K   26016.34280584  .00004555  00000+0  16575-3 0  9997
2 59210  53.1588  38.5795 0001154  71.3811 288.7315 15.30211487105033
STARLINK-31496          
1 59211U 24046L   26016.99646894  .00000624  00000+0  33209-4 0  9996
2 59211  53.1632  22.7731 0001419  91.3984 268.7179 15.30192906105306
STARLINK-31492          
1 59212U 24046M   26016.42712526  .00000370  00000+0  24628-4 0  9994
2 59212  53.1594  38.3897 0001220 100.5249 259.5889 15.30193760105032
STARLINK-31517          
1 59213U 24046N   26016.32593553  .00000267  00000+0  21156-4 0  9999
2 59213  53.1609  38.5031 0001235  82.5660 277.5481 15.30195936105028
STARLINK-31604          
1 59214U 24046P   26016.45972673  .00002348  00000+0  91371-4 0  9996
2 59214  53.1602  37.8856 0001251  88.0013 272.1131 15.30196005105043
STARLINK-31434          
1 59215U 24046Q   26016.36803310  .00000026  00000+0  12998-4 0  9997
2 59215  53.1610  38.0284 0001332  89.2900 270.8254 15.30190829105037
