[{"OBJECT_NAME":"STARLINK-31503","OBJECT_ID":"2024-045Y","EPOCH":"2026-01-16T17:08:56.464224","MEAN_MOTION":15.27576042,"ECCENTRICITY":7.727e-5,"INCLINATION":43.0006,"RA_OF_ASC_NODE":25.9682,"ARG_OF_PERICENTER":267.447,"MEAN_ANOMALY":92.6293,"EPHEMERIS_TYPE":0,"CLASSIFICATION_TYPE":"U","NORAD_CAT_ID":59200,"ELEMENT_SET_NO":999,"REV_AT_EPOCH":10521,"BSTAR":2.3371904e-5,"MEAN_MOTION_DOT":3.81e-6,"MEAN_MOTION_DDOT":0},{"OBJECT_NAME":"STARLINK-31603","OBJECT_ID":"2024-046A","EPOCH":"2026-01-16T08:37:58.493856","MEAN_MOTION":15.30189745,"ECCENTRICITY":0.00012467,"INCLINATION":53.1609,"RA_OF_ASC_NODE":38.6911,"ARG_OF_PERICENTER":92.0188,"MEAN_ANOMALY":268.0956,"EPHEMERIS_TYPE":0,"CLASSIFICATION_TYPE":"U","NORAD_CAT_ID":59201,"ELEMENT_SET_NO":999,"REV_AT_EPOCH":10503,"BSTAR":1.5255641e-5,"MEAN_MOTION_DOT":9.3e-7,"MEAN_MOTION_DDOT":0},{"OBJECT_NAME":"STARLINK-31602","OBJECT_ID":"2024-046B","EPOCH":"2026-01-16T07:44:47.156928","MEAN_MOTION":15.30189096,"ECCENTRICITY":0.00012571,"INCLINATION":53.1594,"RA_OF_ASC_NODE":38.4557,"ARG_OF_PERICENTER":85.8002,"MEAN_ANOMALY":274.3142,"EPHEMERIS_TYPE":0,"CLASSIFICATION_TYPE":"U","NORAD_CAT_ID":59202,"ELEMENT_SET_NO":999,"REV_AT_EPOCH":10503,"BSTAR":1.7958875e-5,"MEAN_MOTION_DOT":1.73e-6,"MEAN_MOTION_DDOT":0},{"OBJECT_NAME":"STARLINK-31577","OBJECT_ID":"2024-046C","EPOCH":"2026-01-17T00:00:02.000160","MEAN_MOTION":15.30178792,"ECCENTRICITY":0.0001367,"INCLINATION":53.1584,"RA_OF_ASC_NODE":35.0607,"ARG_OF_PERICENTER":100.286,"MEAN_ANOMALY":160.6758,"EPHEMERIS_TYPE":0,"CLASSIFICATION_TYPE":"U","NORAD_CAT_ID":59203,"ELEMENT_SET_NO":999,"REV_AT_EPOCH":573,"BSTAR":0.0017933943,"MEAN_MOTION_DOT":0.00053101,"MEAN_MOTION_DDOT":0},{"OBJECT_NAME":"STARLINK-31522","OBJECT_ID":"2024-046D","EPOCH":"2026-01-16T08:34:56.030016","MEAN_MOTION":15.30193123,"ECCENTRICITY":0.00010333,"INCLINATION":53.1599,"RA_OF_ASC_NODE":38.6764,"ARG_OF_PERICENTER":84.0335,"MEAN_ANOMALY":276.0783,"EPHEMERIS_TYPE":0,"CLASSIFICATION_TYPE":"U","NORAD_CAT_ID":59204,"ELEMENT_SET_NO":999,"REV_AT_EPOCH":10503,"BSTAR":2.4564351e-5,"MEAN_MOTION_DOT":3.68e-6,"MEAN_MOTION_DDOT":0},{"OBJECT_NAME":"STARLINK-31586","OBJECT_ID":"2024-046E","EPOCH":"2026-01-16T11:06:33.568992","MEAN_MOTION":15.30200433,"ECCENTRICITY":0.00012765,"INCLINATION":53.161,"RA_OF_ASC_NODE":37.9087,"ARG_OF_PERICENTER":93.1381,"MEAN_ANOMALY":266.9766,"EPHEMERIS_TYPE":0,"CLASSIFICATION_TYPE":"U","NORAD_CAT_ID":59205,"ELEMENT_SET_NO":999,"REV_AT_EPOCH":10505,"BSTAR":7.1723861e-5,"MEAN_MOTION_DOT":1.766e-5,"MEAN_MOTION_DDOT":0},{"OBJECT_NAME":"STARLINK-31247","OBJECT_ID":"2024-046F","EPOCH":"2026-01-16T08:18:14.229792","MEAN_MOTION":15.30181774,"ECCENTRICITY":0.00011581,"INCLINATION":53.159,"RA_OF_ASC_NODE":38.6011,"ARG_OF_PERICENTER":84.5214,"MEAN_ANOMALY":275.5919,"EPHEMERIS_TYPE":0,"CLASSIFICATION_TYPE":"U","NORAD_CAT_ID":59206,"ELEMENT_SET_NO":999,"REV_AT_EPOCH":10503,"BSTAR":-5.403747e-6,"MEAN_MOTION_DOT":-5.19e-6,"MEAN_MOTION_DDOT":0},{"OBJECT_NAME":"STARLINK-31591","OBJECT_ID":"2024-046G","EPOCH":"2026-01-16T10:55:55.612128","MEAN_MOTION":15.3019782,"ECCENTRICITY":0.0001335,"INCLINATION":53.1613,"RA_OF_ASC_NODE":37.8657,"ARG_OF_PERICENTER":87.7522,"MEAN_ANOMALY":272.3631,"EPHEMERIS_TYPE":0,"CLASSIFICATION_TYPE":"U","NORAD_CAT_ID":59207,"ELEMENT_SET_NO":999,"REV_AT_EPOCH":10505,"BSTAR":6.7381716e-5,"MEAN_MOTION_DOT":1.637e-5,"MEAN_MOTION_DDOT":0},{"OBJECT_NAME":"STARLINK-31576","OBJECT_ID":"2024-046H","EPOCH":"2026-01-16T07:35:40.020288","MEAN_MOTION":15.30187283,"ECCENTRICITY":0.00011539,"INCLINATION":53.1604,"RA_OF_ASC_NODE":38.4166,"ARG_OF_PERICENTER":91.3729,"MEAN_ANOMALY":268.7404,"EPHEMERIS_TYPE":0,"CLASSIFICATION_TYPE":"U","NORAD_CAT_ID":59208,"ELEMENT_SET_NO":999,"REV_AT_EPOCH":10503,"BSTAR":3.024555e-6,"MEAN_MOTION_DOT":-2.7e-6,"MEAN_MOTION_DDOT":0},{"OBJECT_NAME":"STARLINK-31601","OBJECT_ID":"2024-046J","EPOCH":"2026-01-16T08:54:31.564224","MEAN_MOTION":15.30192158,"ECCENTRICITY":0.00013949,"INCLINATION":53.1609,"RA_OF_ASC_NODE":38.0458,"ARG_OF_PERICENTER":91.1413,"MEAN_ANOMALY":268.9747,"EPHEMERIS_TYPE":0,"CLASSIFICATION_TYPE":"U","NORAD_CAT_ID":59209,"ELEMENT_SET_NO":999,"REV_AT_EPOCH":10504,"BSTAR":4.6797189e-5,"MEAN_MOTION_DOT":1.027e-5,"MEAN_MOTION_DDOT":0},{"OBJECT_NAME":"STARLINK-31520","OBJECT_ID":"2024-046K","EPOCH":"2026-01-16T08:13:38.424576","MEAN_MOTION":15.30211487,"ECCENTRICITY":0.00011544,"INCLINATION":53.1588,"RA_OF_ASC_NODE":38.5795,"ARG_OF_PERICENTER":71.3811,"MEAN_ANOMALY":288.7315,"EPHEMERIS_TYPE":0,"CLASSIFICATION_TYPE":"U","NORAD_CAT_ID":59210,"ELEMENT_SET_NO":999,"REV_AT_EPOCH":10503,"BSTAR":0.00016575368,"MEAN_MOTION_DOT":4.555e-5,"MEAN_MOTION_DDOT":0},{"OBJECT_NAME":"STARLINK-31496","OBJECT_ID":"2024-046L","EPOCH":"2026-01-16T23:54:54.916416","MEAN_MOTION":15.30192906,"ECCENTRICITY":0.00014193,"INCLINATION":53.1632,"RA_OF_ASC_NODE":22.7731,"ARG_OF_PERICENTER":91.3984,"MEAN_ANOMALY":268.7179,"EPHEMERIS_TYPE":0,"CLASSIFICATION_TYPE":"U","NORAD_CAT_ID":59211,"ELEMENT_SET_NO":999,"REV_AT_EPOCH":10530,"BSTAR":3.3209079e-5,"MEAN_MOTION_DOT":6.24e-6,"MEAN_MOTION_DDOT":0},{"OBJECT_NAME":"STARLINK-31492","OBJECT_ID":"2024-046M","EPOCH":"2026-01-16T10:15:03.622464","MEAN_MOTION":15.3019376,"ECCENTRICITY":0.00012208,"INCLINATION":53.1594,"RA_OF_ASC_NODE":38.3897,"ARG_OF_PERICENTER":100.5249,"MEAN_ANOMALY":259.5889,"EPHEMERIS_TYPE":0,"CLASSIFICATION_TYPE":"U","NORAD_CAT_ID":59212,"ELEMENT_SET_NO":999,"REV_AT_EPOCH":10503,"BSTAR":2.4627511e-5,"MEAN_MOTION_DOT":3.7e-6,"MEAN_MOTION_DDOT":0},{"OBJECT_NAME":"STARLINK-31517","OBJECT_ID":"2024-046N","EPOCH":"2026-01-16T07:49:20.829792","MEAN_MOTION":15.30195936,"ECCENTRICITY":0.00012356,"INCLINATION":53.1609,"RA_OF_ASC_NODE":38.5031,"ARG_OF_PERICENTER":82.566,"MEAN_ANOMALY":277.5481,"EPHEMERIS_TYPE":0,"CLASSIFICATION_TYPE":"U","NORAD_CAT_ID":59213,"ELEMENT_SET_NO":999,"REV_AT_EPOCH":10502,"BSTAR":2.1155899e-5,"MEAN_MOTION_DOT":2.67e-6,"MEAN_MOTION_DDOT":0},{"OBJECT_NAME":"STARLINK-31604","OBJECT_ID":"2024-046P","EPOCH":"2026-01-16T11:02:00.389472","MEAN_MOTION":15.30196005,"ECCENTRICITY":0.00012513,"INCLINATION":53.1602,"RA_OF_ASC_NODE":37.8856,"ARG_OF_PERICENTER":88.0013,"MEAN_ANOMALY":272.1131,"EPHEMERIS_TYPE":0,"CLASSIFICATION_TYPE":"U","NORAD_CAT_ID":59214,"ELEMENT_SET_NO":999,"REV_AT_EPOCH":10504,"BSTAR":9.1371304e-5,"MEAN_MOTION_DOT":2.348e-5,"MEAN_MOTION_DDOT":0},{"OBJECT_NAME":"STARLINK-31434","OBJECT_ID":"2024-046Q","EPOCH":"2026-01-16T08:49:58.059840","MEAN_MOTION":15.30190829,"ECCENTRICITY":0.00013321,"INCLINATION":53.161,"RA_OF_ASC_NODE":38.0284,"ARG_OF_PERICENTER":89.29,"MEAN_ANOMALY":270.8254,"EPHEMERIS_TYPE":0,"CLASSIFICATION_TYPE":"U","NORAD_CAT_ID":59215,"ELEMENT_SET_NO":999,"REV_AT_EPOCH":10503,"BSTAR":1.2998003e-5,"MEAN_MOTION_DOT":2.6e-7,"MEAN_MOTION_DDOT":0}]
